{
  "norad_id": 51964,
  "name": "STARLINK-3690",
  "history": [
    {
      "epoch": "2026-03-28T20:52:43.083840",
      "apogee_km": 476.0858149787282,
      "perigee_km": 474.34191131809166,
      "latitude_deg": 27.568125607269252,
      "longitude_deg": 179.91453759977594,
      "semi_major_axis_km": 6853.35086314841,
      "eccentricity": 0.00012723,
      "inclination_deg": 53.1575,
      "raan_deg": 295.1941,
      "arg_perigee_deg": 85.5716,
      "mean_anomaly_deg": 274.5431,
      "mean_motion_rev_day": 15.30200404
    }
  ]
}